              M50 Cartesian                         M50 Keplerian  
    -----------------------------------       --------------------------------
     X    =        4547561.43                 A    =         6780734.60  meter
     Y    =       -2369518.47  meter          E    =           .0009818
     Z    =       -4446766.14                 I    =           51.97832
     XDOT =        308.927198                 Wp   =           57.69223
     YDOT =       6880.785712  meter/sec      RA   =          109.78727  deg
     ZDOT =      -3350.874053                 TA   =          178.57582
                                              MA   =          178.57302
                                              Ha   =            220.889  n.mi
                                              Hp   =            214.657
 
              M50 Cartesian                         J2K Cartesian  
    -----------------------------------       --------------------------------
     X    =       14919820.95                 X    =         4595320.62
     Y    =       -7774010.72  feet           Y    =        -2318398.18  meter
     Z    =      -14589127.75                 Z    =        -4424558.75
     XDOT =       1013.540677                 XDOT =         248.238805
     YDOT =      22574.756274  feet/sec       YDOT =        6883.900561  meter/sec
     ZDOT =     -10993.681276                 ZDOT =       -3349.521685
 
              TDR Cartesian                         TDR Cartesian  
    -----------------------------------       --------------------------------
     X    =       16605550.30                 X    =         5061371.73
     Y    =       -3179637.43  feet           Y    =         -969153.49  meter
     Z    =      -14492223.91                 Z    =        -4417229.85
     XDOT =      -5618.785083                 XDOT =       -1712.605693
     YDOT =      20737.494593  feet/sec       YDOT =        6320.788352  meter/sec
     ZDOT =     -10988.955325                 ZDOT =       -3349.433583
  
  
    The mean element set is posted at the UTC for which position is
    just north of the next ascending node relative to the above
    vector time
 
 
    TWO LINE MEAN ELEMENT SET
  
    ISS
    1 25544U 98067A   16086.46659722  .00016717  00000-0  10270-3 0  9043
    2 25544  51.6411 110.6038 0002093 354.0141   6.0986 15.54244229 32115
  
  
    Satellite: ISS
    Catalog Number: 25544
    Epoch time:      16086.46659722   =   yrday.fracday
    Element set:     904
    Inclination:       51.6411  deg
    RA of node:       110.6038  deg
    Eccentricity:     .0002093     
    Arg of perigee:   354.0141  deg
    Mean anomaly:       6.0986  deg
    Mean motion:   15.54244229  rev/day
    Decay rate:    1.67170E-04  rev/day^2
    Epoch rev:            3211
    Checksum:              282
 
 
    Coasting Arc #6 (Orbit 3226)
    ---------------------------------------
 
    Vector Time (GMT): 2016/087/10:40:00.000
    Vector Time (MET): N/A
    Weight (LBS)     : 917037.0
 
              M50 Cartesian                         M50 Keplerian  
    -----------------------------------       --------------------------------
     X    =       -4342808.90                 A    =         6777729.81  meter
     Y    =         637175.83  meter          E    =           .0003949
     Z    =        5161210.67                 I    =           51.97830
     XDOT =        733.484479                 Wp   =           97.61043
     YDOT =      -7479.743643  meter/sec      RA   =          104.81449  deg
     ZDOT =       1539.074084                 TA   =          337.62718
                                              MA   =          337.64440
                                              Ha   =            221.102  n.mi
                                              Hp   =            214.415
 
              M50 Cartesian                         J2K Cartesian  
    -----------------------------------       --------------------------------
     X    =      -14248060.68                 X    =        -4374682.33
     Y    =        2090471.89  feet           Y    =          588434.06  meter
     Z    =       16933105.88                 Z    =         5140036.73
     XDOT =       2406.445141                 XDOT =         809.594097
     YDOT =     -24539.841350  feet/sec       YDOT =       -7471.115592  meter/sec
     ZDOT =       5049.455657                 ZDOT =        1542.822962
 
              TDR Cartesian                         TDR Cartesian  
    -----------------------------------       --------------------------------
     X    =      -14391809.79                 X    =        -4386623.62
     Y    =       -1834303.44  feet           Y    =         -559095.69  meter
     Z    =       16840977.48                 Z    =         5133129.94
     XDOT =       8733.378468                 XDOT =        2661.933757
     YDOT =     -21954.684500  feet/sec       YDOT =       -6691.787835  meter/sec
     ZDOT =       5067.016492                 ZDOT =        1544.426627
  
  
    The mean element set is posted at the UTC for which position is
    just north of the next ascending node relative to the above
    vector time
 
 
    TWO LINE MEAN ELEMENT SET
  
    ISS
    1 25544U 98067A   16087.49534533  .00016717  00000-0  10270-3 0  9050
    2 25544  51.6409 105.4746 0002251 359.8604    .2547 15.54267601 32278
  
  
    Satellite: ISS
    Catalog Number: 25544
    Epoch time:      16087.49534533   =   yrday.fracday
    Element set:     905
    Inclination:       51.6409  deg
    RA of node:       105.4746  deg
    Eccentricity:     .0002251     
    Arg of perigee:   359.8604  deg
    Mean anomaly:        .2547  deg
    Mean motion:   15.54267601  rev/day
    Decay rate:    1.67170E-04  rev/day^2
    Epoch rev:            3227
    Checksum:              302
 
 
    Coasting Arc #7 (Orbit 3241)
    ---------------------------------------
 
    Vector Time (GMT): 2016/088/10:40:00.000
    Vector Time (MET): N/A
    Weight (LBS)     : 917037.0
 
              M50 Cartesian                         M50 Keplerian  
    -----------------------------------       --------------------------------
     X    =        4021786.57                 A    =         6777072.71  meter
     Y    =        1205504.60  meter          E    =           .0014866
     Z    =       -5332495.84                 I    =           51.98392
     XDOT =      -1648.679560                 Wp   =           84.81614
     YDOT =       7465.002589  meter/sec      RA   =           99.83705  deg
     ZDOT =        446.529076                 TA   =          189.41436
                                              MA   =          189.44226
                                              Ha   =            221.006  n.mi
                                              Hp   =            214.554
 
              M50 Cartesian                         J2K Cartesian  
    -----------------------------------       --------------------------------
     X    =       13194837.84                 X    =         4033910.59
     Y    =        3955067.60  feet           Y    =         1250546.11  meter
     Z    =      -17495065.10                 Z    =        -5312929.54
     XDOT =      -5409.053675                 XDOT =       -1734.201606
     YDOT =      24491.478311  feet/sec       YDOT =        7446.087824  meter/sec
     ZDOT =       1464.990406                 ZDOT =         438.311617
 
              TDR Cartesian                         TDR Cartesian  
    -----------------------------------       --------------------------------
     X    =       11884742.18                 X    =         3622469.42
     Y    =        7173579.05  feet           Y    =         2186506.90  meter
     Z    =      -17410234.79                 Z    =        -5306639.56
     XDOT =     -10881.539766                 XDOT =       -3316.693321
     YDOT =      21474.601278  feet/sec       YDOT =        6545.458469  meter/sec
     ZDOT =       1427.992897                 ZDOT =         435.252235
  
  
    The mean element set is posted at the UTC for which position is
    just north of the next ascending node relative to the above
    vector time
 
 
    TWO LINE MEAN ELEMENT SET
  
    ISS
    1 25544U 98067A   16088.45979378  .00016717  00000-0  10270-3 0  9068
    2 25544  51.6417 100.6663 0002235   1.2848 358.8310 15.54247509 32424
  
  
    Satellite: ISS
    Catalog Number: 25544
    Epoch time:      16088.45979378   =   yrday.fracday
    Element set:     906
    Inclination:       51.6417  deg
    RA of node:       100.6663  deg
    Eccentricity:     .0002235     
    Arg of perigee:     1.2848  deg
    Mean anomaly:     358.8310  deg
    Mean motion:   15.54247509  rev/day
    Decay rate:    1.67170E-04  rev/day^2
    Epoch rev:            3242
    Checksum:              316
 
 
    Coasting Arc #8 (Orbit 3257)
    ---------------------------------------
 
    Vector Time (GMT): 2016/089/10:40:00.000
    Vector Time (MET): N/A
    Weight (LBS)     : 917037.0
 
              M50 Cartesian                         M50 Keplerian  
    -----------------------------------       --------------------------------
     X    =       -3588331.51                 A    =         6778735.28  meter
     Y    =       -3003945.69  meter          E    =           .0008481
     Z    =        4901059.36                 I    =           51.99369
     XDOT =       2461.103103                 Wp   =           46.81964
     YDOT =      -6859.479395  meter/sec      RA   =           94.86146  deg
     ZDOT =      -2394.138463                 TA   =           66.55999
                                              MA   =           66.47084
                                              Ha   =            221.117  n.mi
                                              Hp   =            214.262
 
